{"fetched_at":"2026-07-16T17:46:03.568Z","source":"https://celestrak.org/NORAD/elements/gp.php?GROUP=kuiper&FORMAT=JSON","constellation":"kuiper","records":[{"OBJECT_NAME":"KUIPER-00062","OBJECT_ID":"2025-134Y","EPOCH":"2026-07-16T05:02:05.775648","CLASSIFICATION_TYPE":"U","MEAN_MOTION":14.79935067,"ECCENTRICITY":0.00006228,"INCLINATION":51.8967,"RA_OF_ASC_NODE":22.258,"ARG_OF_PERICENTER":116.1259,"MEAN_ANOMALY":243.9768,"EPHEMERIS_TYPE":0,"NORAD_CAT_ID":64522,"ELEMENT_SET_NO":999,"REV_AT_EPOCH":5914,"BSTAR":0.00017903108,"MEAN_MOTION_DOT":0.00001144,"MEAN_MOTION_DDOT":0},{"OBJECT_NAME":"KUIPER-00063","OBJECT_ID":"2025-134Z","EPOCH":"2026-07-16T06:27:43.422912","CLASSIFICATION_TYPE":"U","MEAN_MOTION":14.79930649,"ECCENTRICITY":0.00007172,"INCLINATION":51.9036,"RA_OF_ASC_NODE":29.553,"ARG_OF_PERICENTER":109.0773,"MEAN_ANOMALY":251.0267,"EPHEMERIS_TYPE":0,"NORAD_CAT_ID":64523,"ELEMENT_SET_NO":999,"REV_AT_EPOCH":5904,"BSTAR":0.000041273353,"MEAN_MOTION_DOT":9.3e-7,"MEAN_MOTION_DDOT":0},{"OBJECT_NAME":"KUIPER-00064","OBJECT_ID":"2025-134AA","EPOCH":"2026-07-15T22:25:21.913824","CLASSIFICATION_TYPE":"U","MEAN_MOTION":14.79938553,"ECCENTRICITY":0.0000695,"INCLINATION":51.9043,"RA_OF_ASC_NODE":28.4576,"ARG_OF_PERICENTER":115.0364,"MEAN_ANOMALY":245.067,"EPHEMERIS_TYPE":0,"NORAD_CAT_ID":64524,"ELEMENT_SET_NO":999,"REV_AT_EPOCH":5903,"BSTAR":0.00023054,"MEAN_MOTION_DOT":0.00001537,"MEAN_MOTION_DDOT":0},{"OBJECT_NAME":"KUIPER-00065","OBJECT_ID":"2025-134AB","EPOCH":"2026-07-16T06:23:50.675136","CLASSIFICATION_TYPE":"U","MEAN_MOTION":14.79936709,"ECCENTRICITY":0.00007857,"INCLINATION":51.9052,"RA_OF_ASC_NODE":32.1584,"ARG_OF_PERICENTER":123.8957,"MEAN_ANOMALY":236.2081,"EPHEMERIS_TYPE":0,"NORAD_CAT_ID":64525,"ELEMENT_SET_NO":999,"REV_AT_EPOCH":5899,"BSTAR":0.00022389991,"MEAN_MOTION_DOT":0.00001486,"MEAN_MOTION_DDOT":0},{"OBJECT_NAME":"KUIPER-00066","OBJECT_ID":"2025-134AC","EPOCH":"2026-07-15T13:22:35.355360","CLASSIFICATION_TYPE":"U","MEAN_MOTION":14.79935679,"ECCENTRICITY":0.0000396,"INCLINATION":51.9032,"RA_OF_ASC_NODE":332.5733,"ARG_OF_PERICENTER":92.1728,"MEAN_ANOMALY":267.9279,"EPHEMERIS_TYPE":0,"NORAD_CAT_ID":64526,"ELEMENT_SET_NO":999,"REV_AT_EPOCH":5978,"BSTAR":0.00025385,"MEAN_MOTION_DOT":0.00001715,"MEAN_MOTION_DDOT":0},{"OBJECT_NAME":"KUIPER-00069","OBJECT_ID":"2025-151A","EPOCH":"2026-07-15T21:15:30.017376","CLASSIFICATION_TYPE":"U","MEAN_MOTION":14.79932721,"ECCENTRICITY":0.00007,"INCLINATION":51.9023,"RA_OF_ASC_NODE":73.7615,"ARG_OF_PERICENTER":105.0049,"MEAN_ANOMALY":255.0991,"EPHEMERIS_TYPE":0,"NORAD_CAT_ID":64816,"ELEMENT_SET_NO":999,"REV_AT_EPOCH":5574,"BSTAR":0.0002432,"MEAN_MOTION_DOT":0.00001633,"MEAN_MOTION_DDOT":0},{"OBJECT_NAME":"KUIPER-00070","OBJECT_ID":"2025-151B","EPOCH":"2026-07-16T00:39:45.501408","CLASSIFICATION_TYPE":"U","MEAN_MOTION":14.79931349,"ECCENTRICITY":0.00008212,"INCLINATION":51.9002,"RA_OF_ASC_NODE":98.0448,"ARG_OF_PERICENTER":103.1379,"MEAN_ANOMALY":256.9675,"EPHEMERIS_TYPE":0,"NORAD_CAT_ID":64817,"ELEMENT_SET_NO":999,"REV_AT_EPOCH":5542,"BSTAR":0.0002655454,"MEAN_MOTION_DOT":0.00001804,"MEAN_MOTION_DDOT":0},{"OBJECT_NAME":"KUIPER-00071","OBJECT_ID":"2025-151C","EPOCH":"2026-07-16T00:43:38.234496","CLASSIFICATION_TYPE":"U","MEAN_MOTION":14.79943772,"ECCENTRICITY":0.00009429,"INCLINATION":51.9015,"RA_OF_ASC_NODE":95.5701,"ARG_OF_PERICENTER":110.006,"MEAN_ANOMALY":250.1004,"EPHEMERIS_TYPE":0,"NORAD_CAT_ID":64818,"ELEMENT_SET_NO":999,"REV_AT_EPOCH":5427,"BSTAR":0.00028548205,"MEAN_MOTION_DOT":0.00001956,"MEAN_MOTION_DDOT":0},{"OBJECT_NAME":"KUIPER-00072","OBJECT_ID":"2025-151D","EPOCH":"2026-07-16T02:03:18.476064","CLASSIFICATION_TYPE":"U","MEAN_MOTION":14.79939312,"ECCENTRICITY":0.00008316,"INCLINATION":51.8988,"RA_OF_ASC_NODE":75.2712,"ARG_OF_PERICENTER":103.684,"MEAN_ANOMALY":256.4215,"EPHEMERIS_TYPE":0,"NORAD_CAT_ID":64819,"ELEMENT_SET_NO":999,"REV_AT_EPOCH":5456,"BSTAR":0.000045108612,"MEAN_MOTION_DOT":0.00000123,"MEAN_MOTION_DDOT":0},{"OBJECT_NAME":"KUIPER-00073","OBJECT_ID":"2025-151E","EPOCH":"2026-07-15T22:17:44.920896","CLASSIFICATION_TYPE":"U","MEAN_MOTION":14.79945122,"ECCENTRICITY":0.0001006,"INCLINATION":51.9004,"RA_OF_ASC_NODE":96.0025,"ARG_OF_PERICENTER":100.6648,"MEAN_ANOMALY":259.4428,"EPHEMERIS_TYPE":0,"NORAD_CAT_ID":64820,"ELEMENT_SET_NO":999,"REV_AT_EPOCH":5544,"BSTAR":0.00024425,"MEAN_MOTION_DOT":0.00001642,"MEAN_MOTION_DDOT":0},{"OBJECT_NAME":"KUIPER-00074","OBJECT_ID":"2025-151F","EPOCH":"2026-07-16T02:35:04.879104","CLASSIFICATION_TYPE":"U","MEAN_MOTION":16.02489647,"ECCENTRICITY":0.00051355,"INCLINATION":51.8747,"RA_OF_ASC_NODE":352.8655,"ARG_OF_PERICENTER":287.4098,"MEAN_ANOMALY":72.6354,"EPHEMERIS_TYPE":0,"NORAD_CAT_ID":64821,"ELEMENT_SET_NO":999,"REV_AT_EPOCH":5569,"BSTAR":0.00056924406,"MEAN_MOTION_DOT":0.00343749,"MEAN_MOTION_DDOT":0.000062899216},{"OBJECT_NAME":"KUIPER-00075","OBJECT_ID":"2025-151G","EPOCH":"2026-07-15T20:12:20.312064","CLASSIFICATION_TYPE":"U","MEAN_MOTION":15.45389816,"ECCENTRICITY":0.000383,"INCLINATION":51.867,"RA_OF_ASC_NODE":316.239,"ARG_OF_PERICENTER":10.9956,"MEAN_ANOMALY":349.1117,"EPHEMERIS_TYPE":0,"NORAD_CAT_ID":64822,"ELEMENT_SET_NO":999,"REV_AT_EPOCH":5619,"BSTAR":0.00055586,"MEAN_MOTION_DOT":0.00026679,"MEAN_MOTION_DDOT":0},{"OBJECT_NAME":"KUIPER-00076","OBJECT_ID":"2025-151H","EPOCH":"2026-07-16T01:47:48.003360","CLASSIFICATION_TYPE":"U","MEAN_MOTION":14.79933189,"ECCENTRICITY":0.00008816,"INCLINATION":51.9017,"RA_OF_ASC_NODE":85.3776,"ARG_OF_PERICENTER":105.3548,"MEAN_ANOMALY":254.7512,"EPHEMERIS_TYPE":0,"NORAD_CAT_ID":64823,"ELEMENT_SET_NO":999,"REV_AT_EPOCH":5442,"BSTAR":0.00025215935,"MEAN_MOTION_DOT":0.00001702,"MEAN_MOTION_DDOT":0},{"OBJECT_NAME":"KUIPER-00077","OBJECT_ID":"2025-151J","EPOCH":"2026-07-16T01:40:02.374752","CLASSIFICATION_TYPE":"U","MEAN_MOTION":14.79934447,"ECCENTRICITY":0.00007965,"INCLINATION":51.9021,"RA_OF_ASC_NODE":90.4204,"ARG_OF_PERICENTER":105.7329,"MEAN_ANOMALY":254.3721,"EPHEMERIS_TYPE":0,"NORAD_CAT_ID":64824,"ELEMENT_SET_NO":999,"REV_AT_EPOCH":5435,"BSTAR":0.00025616506,"MEAN_MOTION_DOT":0.00001732,"MEAN_MOTION_DDOT":0},{"OBJECT_NAME":"KUIPER-00078","OBJECT_ID":"2025-151K","EPOCH":"2026-07-15T21:40:48.561312","CLASSIFICATION_TYPE":"U","MEAN_MOTION":14.79929893,"ECCENTRICITY":0.0000762,"INCLINATION":51.9011,"RA_OF_ASC_NODE":88.6329,"ARG_OF_PERICENTER":104.1149,"MEAN_ANOMALY":255.9898,"EPHEMERIS_TYPE":0,"NORAD_CAT_ID":64825,"ELEMENT_SET_NO":999,"REV_AT_EPOCH":5436,"BSTAR":0.00023758,"MEAN_MOTION_DOT":0.0000159,"MEAN_MOTION_DDOT":0},{"OBJECT_NAME":"KUIPER-00079","OBJECT_ID":"2025-151L","EPOCH":"2026-07-16T03:13:22.169568","CLASSIFICATION_TYPE":"U","MEAN_MOTION":14.79937361,"ECCENTRICITY":0.00007366,"INCLINATION":51.9001,"RA_OF_ASC_NODE":92.5717,"ARG_OF_PERICENTER":103.7196,"MEAN_ANOMALY":256.3848,"EPHEMERIS_TYPE":0,"NORAD_CAT_ID":64826,"ELEMENT_SET_NO":999,"REV_AT_EPOCH":5552,"BSTAR":0.00025274576,"MEAN_MOTION_DOT":0.00001706,"MEAN_MOTION_DDOT":0}]}
