KUIPER-00062            
1 64522U 25134Y   26197.20978907  .00001144  00000+0  17903-3 0  9993
2 64522  51.8967  22.2580 0000622 116.1259 243.9768 14.79935067 59140
KUIPER-00063            
1 64523U 25134Z   26197.26925258  .00000093  00000+0  41273-4 0  9991
2 64523  51.9036  29.5530 0000717 109.0773 251.0267 14.79930649 59045
KUIPER-00064            
1 64524U 25134AA  26196.93428141  .00001537  00000+0  23054-3 0  9994
2 64524  51.9043  28.4576 0000695 115.0364 245.0670 14.79938553 59032
KUIPER-00065            
1 64525U 25134AB  26197.26655874  .00001486  00000+0  22390-3 0  9992
2 64525  51.9052  32.1584 0000785 123.8957 236.2081 14.79936709 58992
KUIPER-00066            
1 64526U 25134AC  26196.55735365  .00001715  00000+0  25385-3 0  9990
2 64526  51.9032 332.5733 0000396  92.1728 267.9279 14.79935679 59789
KUIPER-00069            
1 64816U 25151A   26196.88576409  .00001633  00000+0  24320-3 0  9996
2 64816  51.9023  73.7615 0000700 105.0049 255.0991 14.79932721 55749
KUIPER-00070            
1 64817U 25151B   26197.02760997  .00001804  00000+0  26555-3 0  9993
2 64817  51.9002  98.0448 0000821 103.1379 256.9675 14.79931349 55429
KUIPER-00071            
1 64818U 25151C   26197.03030364  .00001956  00000+0  28548-3 0  9995
2 64818  51.9015  95.5701 0000942 110.0060 250.1004 14.79943772 54273
KUIPER-00072            
1 64819U 25151D   26197.08563051  .00000123  00000+0  45109-4 0  9993
2 64819  51.8988  75.2712 0000831 103.6840 256.4215 14.79939312 54560
KUIPER-00073            
1 64820U 25151E   26196.92899214  .00001642  00000+0  24425-3 0  9994
2 64820  51.9004  96.0025 0001006 100.6648 259.4428 14.79945122 55441
KUIPER-00074            
1 64821U 25151F   26197.10769536  .00343749  62899-4  56924-3 0  9994
2 64821  51.8747 352.8655 0005135 287.4098  72.6354 16.02489647 55690
KUIPER-00075            
1 64822U 25151G   26196.84190176  .00026679  00000+0  55586-3 0  9997
2 64822  51.8670 316.2390 0003830  10.9956 349.1117 15.45389816 56196
KUIPER-00076            
1 64823U 25151H   26197.07486115  .00001702  00000+0  25216-3 0  9992
2 64823  51.9017  85.3776 0000881 105.3548 254.7512 14.79933189 54422
KUIPER-00077            
1 64824U 25151J   26197.06947193  .00001732  00000+0  25617-3 0  9998
2 64824  51.9021  90.4204 0000796 105.7329 254.3721 14.79934447 54355
KUIPER-00078            
1 64825U 25151K   26196.90333983  .00001590  00000+0  23758-3 0  9993
2 64825  51.9011  88.6329 0000762 104.1149 255.9898 14.79929893 54360
KUIPER-00079            
1 64826U 25151L   26197.13428437  .00001706  00000+0  25275-3 0  9994
2 64826  51.9001  92.5717 0000736 103.7196 256.3848 14.79937361 55521
